[Satellite]
VERSION=1.1
NAME=STARLINK-4765
NICKNAME=STARLINK-4765
TLE1=1 53937U 22119BD  22297.25001157 -.00130314  00000+0 -93863-3 0  9990
TLE2=2 53937  53.2157 108.0281 0001808  28.9928 177.4928 15.73195349  5041
STATUS=0
